[{"OBJECT_NAME":"ONEWEB-0186","OBJECT_ID":"2021-031V","EPOCH":"2025-10-01T05:46:22.826208","MEAN_MOTION":13.14502728,"ECCENTRICITY":0.00019945,"INCLINATION":87.9075,"RA_OF_ASC_NODE":341.2555,"ARG_OF_PERICENTER":100.0216,"MEAN_ANOMALY":260.1139,"EPHEMERIS_TYPE":0,"CLASSIFICATION_TYPE":"U","NORAD_CAT_ID":48229,"ELEMENT_SET_NO":999,"REV_AT_EPOCH":21436,"BSTAR":-0.00070930736,"MEAN_MOTION_DOT":-2.5e-6,"MEAN_MOTION_DDOT":0},{"OBJECT_NAME":"ONEWEB-0181","OBJECT_ID":"2021-031W","EPOCH":"2025-10-01T05:14:25.433088","MEAN_MOTION":13.1450273,"ECCENTRICITY":0.00019858,"INCLINATION":87.9055,"RA_OF_ASC_NODE":341.3268,"ARG_OF_PERICENTER":103.7113,"MEAN_ANOMALY":256.4238,"EPHEMERIS_TYPE":0,"CLASSIFICATION_TYPE":"U","NORAD_CAT_ID":48230,"ELEMENT_SET_NO":999,"REV_AT_EPOCH":21421,"BSTAR":-0.0010504593,"MEAN_MOTION_DOT":-3.77e-6,"MEAN_MOTION_DDOT":0},{"OBJECT_NAME":"ONEWEB-0188","OBJECT_ID":"2021-031X","EPOCH":"2025-10-01T06:09:13.717728","MEAN_MOTION":13.14501773,"ECCENTRICITY":0.00019373,"INCLINATION":87.9064,"RA_OF_ASC_NODE":341.3139,"ARG_OF_PERICENTER":98.4276,"MEAN_ANOMALY":261.7073,"EPHEMERIS_TYPE":0,"CLASSIFICATION_TYPE":"U","NORAD_CAT_ID":48231,"ELEMENT_SET_NO":999,"REV_AT_EPOCH":21412,"BSTAR":0.00082442967,"MEAN_MOTION_DOT":3.18e-6,"MEAN_MOTION_DDOT":0},{"OBJECT_NAME":"ONEWEB-0220","OBJECT_ID":"2021-031Y","EPOCH":"2025-10-01T05:16:43.193568","MEAN_MOTION":13.14503586,"ECCENTRICITY":0.00021235,"INCLINATION":87.907,"RA_OF_ASC_NODE":341.2605,"ARG_OF_PERICENTER":98.3537,"MEAN_ANOMALY":261.7834,"EPHEMERIS_TYPE":0,"CLASSIFICATION_TYPE":"U","NORAD_CAT_ID":48232,"ELEMENT_SET_NO":999,"REV_AT_EPOCH":21438,"BSTAR":-0.00038238701,"MEAN_MOTION_DOT":-1.29e-6,"MEAN_MOTION_DDOT":0},{"OBJECT_NAME":"ONEWEB-0165","OBJECT_ID":"2021-031Z","EPOCH":"2025-10-01T05:57:48.739392","MEAN_MOTION":13.14502322,"ECCENTRICITY":0.00020386,"INCLINATION":87.9053,"RA_OF_ASC_NODE":341.2926,"ARG_OF_PERICENTER":101.5286,"MEAN_ANOMALY":258.6073,"EPHEMERIS_TYPE":0,"CLASSIFICATION_TYPE":"U","NORAD_CAT_ID":48233,"ELEMENT_SET_NO":999,"REV_AT_EPOCH":21434,"BSTAR":-0.0001114217,"MEAN_MOTION_DOT":-2.9e-7,"MEAN_MOTION_DDOT":0},{"OBJECT_NAME":"ONEWEB-0199","OBJECT_ID":"2021-031AA","EPOCH":"2025-10-01T05:34:58.601280","MEAN_MOTION":13.14502637,"ECCENTRICITY":0.00017244,"INCLINATION":87.9064,"RA_OF_ASC_NODE":341.2633,"ARG_OF_PERICENTER":98.4855,"MEAN_ANOMALY":261.647,"EPHEMERIS_TYPE":0,"CLASSIFICATION_TYPE":"U","NORAD_CAT_ID":48234,"ELEMENT_SET_NO":999,"REV_AT_EPOCH":21424,"BSTAR":-5.7199571e-5,"MEAN_MOTION_DOT":-8.0e-8,"MEAN_MOTION_DDOT":0},{"OBJECT_NAME":"ONEWEB-0203","OBJECT_ID":"2021-031AB","EPOCH":"2025-10-01T03:31:39.593856","MEAN_MOTION":13.14502639,"ECCENTRICITY":0.0001747,"INCLINATION":87.9064,"RA_OF_ASC_NODE":341.282,"ARG_OF_PERICENTER":107.2393,"MEAN_ANOMALY":252.8928,"EPHEMERIS_TYPE":0,"CLASSIFICATION_TYPE":"U","NORAD_CAT_ID":48235,"ELEMENT_SET_NO":999,"REV_AT_EPOCH":21424,"BSTAR":-0.00075961087,"MEAN_MOTION_DOT":-2.69e-6,"MEAN_MOTION_DDOT":0},{"OBJECT_NAME":"ONEWEB-0197","OBJECT_ID":"2021-031AC","EPOCH":"2025-10-01T02:54:56.534688","MEAN_MOTION":13.14503498,"ECCENTRICITY":0.00019931,"INCLINATION":87.9065,"RA_OF_ASC_NODE":341.2851,"ARG_OF_PERICENTER":89.1345,"MEAN_ANOMALY":271.0014,"EPHEMERIS_TYPE":0,"CLASSIFICATION_TYPE":"U","NORAD_CAT_ID":48236,"ELEMENT_SET_NO":999,"REV_AT_EPOCH":21415,"BSTAR":-0.0003480202,"MEAN_MOTION_DOT":-1.16e-6,"MEAN_MOTION_DDOT":0},{"OBJECT_NAME":"ONEWEB-0194","OBJECT_ID":"2021-031AD","EPOCH":"2025-10-01T06:04:40.044000","MEAN_MOTION":13.14501207,"ECCENTRICITY":0.00016044,"INCLINATION":87.9072,"RA_OF_ASC_NODE":341.2742,"ARG_OF_PERICENTER":99.515,"MEAN_ANOMALY":260.6161,"EPHEMERIS_TYPE":0,"CLASSIFICATION_TYPE":"U","NORAD_CAT_ID":48237,"ELEMENT_SET_NO":999,"REV_AT_EPOCH":21434,"BSTAR":0.00055979325,"MEAN_MOTION_DOT":2.2e-6,"MEAN_MOTION_DDOT":0},{"OBJECT_NAME":"ONEWEB-0193","OBJECT_ID":"2021-031AE","EPOCH":"2025-10-01T04:37:53.048640","MEAN_MOTION":13.14502724,"ECCENTRICITY":0.00014228,"INCLINATION":87.9057,"RA_OF_ASC_NODE":341.2851,"ARG_OF_PERICENTER":97.6341,"MEAN_ANOMALY":262.495,"EPHEMERIS_TYPE":0,"CLASSIFICATION_TYPE":"U","NORAD_CAT_ID":48238,"ELEMENT_SET_NO":999,"REV_AT_EPOCH":21428,"BSTAR":-0.0004910779,"MEAN_MOTION_DOT":-1.69e-6,"MEAN_MOTION_DDOT":0},{"OBJECT_NAME":"ONEWEB-0191","OBJECT_ID":"2021-031AF","EPOCH":"2025-10-01T04:53:52.532736","MEAN_MOTION":13.14502565,"ECCENTRICITY":0.00018378,"INCLINATION":87.9077,"RA_OF_ASC_NODE":341.2635,"ARG_OF_PERICENTER":97.5654,"MEAN_ANOMALY":262.5684,"EPHEMERIS_TYPE":0,"CLASSIFICATION_TYPE":"U","NORAD_CAT_ID":48239,"ELEMENT_SET_NO":999,"REV_AT_EPOCH":21414,"BSTAR":-8.496149e-5,"MEAN_MOTION_DOT":-1.9e-7,"MEAN_MOTION_DDOT":0},{"OBJECT_NAME":"ONEWEB-0195","OBJECT_ID":"2021-031AG","EPOCH":"2025-10-01T06:10:23.175552","MEAN_MOTION":13.14502659,"ECCENTRICITY":0.0002161,"INCLINATION":87.9072,"RA_OF_ASC_NODE":341.2497,"ARG_OF_PERICENTER":107.7877,"MEAN_ANOMALY":252.3489,"EPHEMERIS_TYPE":0,"CLASSIFICATION_TYPE":"U","NORAD_CAT_ID":48240,"ELEMENT_SET_NO":999,"REV_AT_EPOCH":21413,"BSTAR":0.00071143233,"MEAN_MOTION_DOT":2.77e-6,"MEAN_MOTION_DDOT":0},{"OBJECT_NAME":"ONEWEB-0201","OBJECT_ID":"2021-031AH","EPOCH":"2025-10-01T05:53:26.923200","MEAN_MOTION":13.14501383,"ECCENTRICITY":0.00021845,"INCLINATION":87.9066,"RA_OF_ASC_NODE":341.3013,"ARG_OF_PERICENTER":96.3405,"MEAN_ANOMALY":263.7974,"EPHEMERIS_TYPE":0,"CLASSIFICATION_TYPE":"U","NORAD_CAT_ID":48241,"ELEMENT_SET_NO":999,"REV_AT_EPOCH":21436,"BSTAR":0.00030369354,"MEAN_MOTION_DOT":1.25e-6,"MEAN_MOTION_DDOT":0},{"OBJECT_NAME":"ONEWEB-0207","OBJECT_ID":"2021-031AJ","EPOCH":"2025-10-01T03:35:04.742880","MEAN_MOTION":13.14502523,"ECCENTRICITY":0.00020586,"INCLINATION":87.9063,"RA_OF_ASC_NODE":341.2769,"ARG_OF_PERICENTER":94.811,"MEAN_ANOMALY":265.3255,"EPHEMERIS_TYPE":0,"CLASSIFICATION_TYPE":"U","NORAD_CAT_ID":48242,"ELEMENT_SET_NO":999,"REV_AT_EPOCH":21426,"BSTAR":-0.00092583558,"MEAN_MOTION_DOT":-3.3e-6,"MEAN_MOTION_DDOT":0},{"OBJECT_NAME":"ONEWEB-0208","OBJECT_ID":"2021-031AK","EPOCH":"2025-10-01T04:58:26.790528","MEAN_MOTION":13.14502325,"ECCENTRICITY":0.00019873,"INCLINATION":87.9067,"RA_OF_ASC_NODE":341.2809,"ARG_OF_PERICENTER":104.0503,"MEAN_ANOMALY":256.0848,"EPHEMERIS_TYPE":0,"CLASSIFICATION_TYPE":"U","NORAD_CAT_ID":48243,"ELEMENT_SET_NO":999,"REV_AT_EPOCH":21428,"BSTAR":-0.00034089106,"MEAN_MOTION_DOT":-1.14e-6,"MEAN_MOTION_DDOT":0},{"OBJECT_NAME":"ONEWEB-0200","OBJECT_ID":"2021-031AL","EPOCH":"2025-10-01T05:55:31.055808","MEAN_MOTION":13.14502574,"ECCENTRICITY":0.00019364,"INCLINATION":87.9066,"RA_OF_ASC_NODE":341.2631,"ARG_OF_PERICENTER":101.1373,"MEAN_ANOMALY":258.9975,"EPHEMERIS_TYPE":0,"CLASSIFICATION_TYPE":"U","NORAD_CAT_ID":48244,"ELEMENT_SET_NO":999,"REV_AT_EPOCH":21421,"BSTAR":-0.00038392548,"MEAN_MOTION_DOT":-1.3e-6,"MEAN_MOTION_DDOT":0}]
