ONEWEB-0186             
1 48229U 21031V   25274.24054197 -.00000250  00000+0 -70931-3 0  9995
2 48229  87.9075 341.2555 0001994 100.0216 260.1139 13.14502728214362
ONEWEB-0181             
1 48230U 21031W   25274.21834992 -.00000377  00000+0 -10505-2 0  9993
2 48230  87.9055 341.3268 0001985 103.7113 256.4238 13.14502730214215
ONEWEB-0188             
1 48231U 21031X   25274.25640877  .00000318  00000+0  82443-3 0  9999
2 48231  87.9064 341.3139 0001937  98.4276 261.7073 13.14501773214122
ONEWEB-0220             
1 48232U 21031Y   25274.21994437 -.00000129  00000+0 -38239-3 0  9996
2 48232  87.9070 341.2605 0002123  98.3537 261.7834 13.14503586214381
ONEWEB-0165             
1 48233U 21031Z   25274.24848078 -.00000029  00000+0 -11142-3 0  9992
2 48233  87.9053 341.2926 0002038 101.5286 258.6073 13.14502322214345
ONEWEB-0199             
1 48234U 21031AA  25274.23262270 -.00000008  00000+0 -57200-4 0  9999
2 48234  87.9064 341.2633 0001724  98.4855 261.6470 13.14502637214243
ONEWEB-0203             
1 48235U 21031AB  25274.14698604 -.00000269  00000+0 -75961-3 0  9996
2 48235  87.9064 341.2820 0001747 107.2393 252.8928 13.14502639214245
ONEWEB-0197             
1 48236U 21031AC  25274.12148767 -.00000116  00000+0 -34802-3 0  9995
2 48236  87.9065 341.2851 0001993  89.1345 271.0014 13.14503498214152
ONEWEB-0194             
1 48237U 21031AD  25274.25324125  .00000220  00000+0  55979-3 0  9996
2 48237  87.9072 341.2742 0001604  99.5150 260.6161 13.14501207214342
ONEWEB-0193             
1 48238U 21031AE  25274.19297510 -.00000169  00000+0 -49108-3 0  9998
2 48238  87.9057 341.2851 0001422  97.6341 262.4950 13.14502724214280
ONEWEB-0191             
1 48239U 21031AF  25274.20408024 -.00000019  00000+0 -84961-4 0  9996
2 48239  87.9077 341.2635 0001837  97.5654 262.5684 13.14502565214142
ONEWEB-0195             
1 48240U 21031AG  25274.25721268  .00000277  00000+0  71143-3 0  9992
2 48240  87.9072 341.2497 0002161 107.7877 252.3489 13.14502659214130
ONEWEB-0201             
1 48241U 21031AH  25274.24545050  .00000125  00000+0  30369-3 0  9992
2 48241  87.9066 341.3013 0002184  96.3405 263.7974 13.14501383214367
ONEWEB-0207             
1 48242U 21031AJ  25274.14936045 -.00000330  00000+0 -92584-3 0  9997
2 48242  87.9063 341.2769 0002058  94.8110 265.3255 13.14502523214264
ONEWEB-0208             
1 48243U 21031AK  25274.20725452 -.00000114  00000+0 -34089-3 0  9999
2 48243  87.9067 341.2809 0001987 104.0503 256.0848 13.14502325214281
ONEWEB-0200             
1 48244U 21031AL  25274.24688722 -.00000130  00000+0 -38393-3 0  9992
2 48244  87.9066 341.2631 0001936 101.1373 258.9975 13.14502574214212
